address_id,zip_code,country,city,street
1,30266,Japan,Okunoya,0623 Hermina Parkway
2,46465,Indonesia,Kapunduk,41480 Esker Way
3,646728,Lebanon,Djounie,10298 Farwell Pass
4,500766,China,Kesheng,3075 Butterfield Alley
5,637388,United States,Pittsburgh,77614 Welch Trail
6,752540,Poland,Garbów,9192 Vernon Plaza
7,149477,Armenia,Argel,85299 Grover Alley
8,27131,Indonesia,Bitobe,93246 Clarendon Center
9,815479,China,Yanglin,767 Fremont Point
10,525786,Iran,Takāb,564 Forster Way
11,854380,China,Yanling,288 1st Junction
12,561529,China,Sanjiang,49 Pepper Wood Park
13,595044,Indonesia,Ongabelen,72 Transport Plaza
14,94892,Canada,Brampton,27736 Colorado Plaza
15,499910,Portugal,Cachadinha,4 Duke Point
16,155002,Malaysia,Kuala Terengganu,530 South Alley
17,701821,Egypt,Al Ḩawāmidīyah,59 Ridge Oak Trail
18,402335,Russia,Tyrnyauz,981 Algoma Junction
19,963208,China,Jiegan,787 Prentice Road
20,365956,Latvia,Ādaži,5182 Grayhawk Crossing
21,943372,Estonia,Mustvee,02 Huxley Point
22,508863,France,Massy,264 Utah Drive
23,899616,Philippines,Bontoc,8 Gina Plaza
24,867064,Chad,Bébédja,43 Sloan Alley
25,994857,Honduras,Tocoa,26 International Road
26,659457,Colombia,Nariño,68081 Dawn Lane
27,830816,Brazil,Araranguá,34653 Mendota Park
28,814614,New Zealand,Foxton,0488 Manley Parkway
29,629080,Peru,Yanac,768 Nova Crossing
30,93583,China,Yingyang,69002 Thompson Point
31,632733,China,Zhourui,9695 Cherokee Circle
32,828080,Finland,Tampere,837 Thompson Place
33,829686,Ivory Coast,Tanda,19613 Hintze Pass
34,678639,Canada,Calmar,634 Fulton Avenue
35,344455,China,Hongshunli,545 Almo Terrace
36,292034,China,Xiaoruo,678 Eggendart Center
37,66647,Cameroon,Kumba,79998 Welch Alley
38,29122,China,Wushan,31 Golden Leaf Circle
39,141068,Iran,Kāshmar,8636 Dottie Way
40,244235,China,Zhenyuan,816 Red Cloud Place
41,460409,South Korea,Samsan,906 Mallard Drive
42,694776,Indonesia,Berbek,65 Kensington Crossing
43,738700,Argentina,San Pedro,94688 Jay Street
44,140462,Kazakhstan,Shashūbay,549 Shasta Plaza
45,556851,China,Datuan,1303 Briar Crest Way
46,769775,Venezuela,San Juan de Manapiare,7 Dakota Way
47,255838,Poland,Mikołów,67 Hooker Court
48,694767,Panama,Quebrada Canoa,06 Marcy Terrace
49,555787,China,Henglu,82 Old Shore Place
50,196714,Portugal,Ourentã,67 Alpine Crossing
51,674178,Philippines,Conel,0 Sugar Avenue
52,772712,Macedonia,Kochani,06242 Onsgard Plaza
53,339918,Russia,Birobidzhan,5730 Caliangt Street
54,441290,China,Baishui,68402 Laurel Trail
55,143377,Ireland,Cluain Meala,9235 Rowland Place
56,148432,China,Tangtu,22821 Carberry Trail
57,131427,Brazil,Irati,8465 Kipling Way
58,986751,Japan,Miyazaki-shi,7 Northridge Trail
59,341376,Indonesia,Sumuragung,5 Brown Junction
60,107916,Sweden,Sundsvall,4661 Oak Park
61,376130,Russia,Chupa,0 Golf Parkway
62,785552,China,Shimen,7143 Badeau Alley
63,808783,China,Yunping,38 Manley Lane
64,274888,Indonesia,Tlogowungu,85 Rusk Lane
65,975360,French Polynesia,Hitiaa,70413 Arrowood Way
66,187607,Russia,Konosha,7633 Kingsford Pass
67,228629,China,Panshi,970 7th Lane
68,826259,Syria,Dhībīn,17708 Mockingbird Park
69,919800,Greece,Vári,73 Nelson Place
70,337973,China,Wangmo,8622 Gale Crossing
71,519271,China,Jiaowei,51 Red Cloud Parkway
72,296335,China,Dangmu,633 Marquette Parkway
73,503016,China,Chengzhong,23 Kinsman Street
74,14875,Portugal,Verdizela,06 Scott Parkway
75,824443,China,Hongchang,5 Arkansas Parkway
76,554815,France,Marseille,82047 Butterfield Alley
77,497192,Sweden,Tibro,0713 Norway Maple Alley
78,109469,China,Jiantian,68283 Gateway Point
79,50585,Finland,Ikaalinen,582 Maryland Junction
80,908203,Canada,Richmond,91 Esker Plaza
81,992832,China,Daping,917 Coolidge Alley
82,736244,China,Jindong,0 Scott Junction
83,421089,Barbados,Four Cross Roads,4043 Packers Pass
84,90829,United States,Fort Worth,193 Service Trail
85,685835,South Africa,Willowmore,27968 Sachtjen Parkway
86,231033,China,Huangnihe,33 Victoria Park
87,496753,China,Hongdun,63 Grim Terrace
88,28648,Philippines,Piñahan,12 Banding Terrace
89,815556,United Kingdom,Leeds,3 Bunker Hill Place
90,189367,Argentina,Tres Arroyos,487 Oxford Way
91,245168,Poland,Szczawno-Zdrój,90 Sunbrook Lane
92,717604,Saudi Arabia,Tanūmah,9535 Sunfield Hill
93,55286,Indonesia,Balengbeng,2330 Delaware Lane
94,725889,Netherlands,Leeuwarden,23 Esch Point
95,62659,Philippines,San Francisco,01 New Castle Junction
96,912344,Paraguay,Altos,7 Vidon Court
97,480133,Thailand,Ban Talat Bueng,4583 Dawn Terrace
98,282459,United States,Annapolis,81 Portage Drive
99,915457,Canada,Wabana,4805 Moland Plaza
100,263887,United States,Baltimore,4136 Kim Park
101,142644,Croatia,Čakovec,9 Melvin Court
102,303433,Philippines,Ambulong,81 Columbus Place
103,350684,Poland,Jednorożec,323 Bay Crossing
104,578249,Russia,Krechevitsy,1 Cody Crossing
105,878597,French Polynesia,Vaitape,2384 Scott Court
106,680528,Indonesia,Biito,2336 Prairieview Plaza
107,730195,Indonesia,Kimakamak,1912 Linden Pass
108,884804,Poland,Radostowice,26 Anhalt Way
109,63163,China,Xiashixiang,40946 Gateway Pass
110,274750,Indonesia,Kuala Bintang,67044 Texas Parkway
111,310767,Guatemala,Senahú,34939 Valley Edge Avenue
112,318783,Philippines,General Luna,3146 Northview Hill
113,466298,Austria,Sankt Lorenzen im Mürztal,816 Pine View Parkway
114,836138,Poland,Janowice,69219 Welch Hill
115,411581,Azerbaijan,Qaxbaş,77 Hayes Road
116,805882,Netherlands,Woerden,79351 Hoffman Park
117,944608,China,Huangzhai,38539 Jana Park
118,734224,Bosnia and Herzegovina,Stupari,00360 Farmco Alley
119,514713,Indonesia,Sindangsari,06119 Crownhardt Parkway
120,646426,Venezuela,San Fernando de Atabapo,99 Shelley Parkway
121,994731,Russia,Georgiyevsk,14 Burning Wood Point
122,947315,Indonesia,Mojogajeh,8 Ilene Terrace
123,14646,Russia,Dmitriyevskoye,81 Bay Court
124,908601,Argentina,Quimilí,78531 South Pass
125,935369,Israel,Azor,2989 Maple Wood Plaza
126,420513,Belarus,Kokhanava,3 Browning Alley
127,857157,Puerto Rico,San Juan,1320 Fulton Lane
128,309617,China,Zhangyelu,01491 Hooker Junction
129,405774,Indonesia,Ambon,741 Rigney Terrace
130,745782,Kazakhstan,Oktyabr’sk,1 Judy Road
131,726104,United States,Salt Lake City,93734 Elmside Lane
132,302080,Portugal,Antas,925 Golf Course Street
133,734099,China,Beiping,436 Judy Road
134,633577,Philippines,Tarangnan,9378 Anhalt Hill
135,529037,Sweden,Haparanda,4916 Esker Point
136,536634,China,Kangshan,20 Trailsway Alley
137,296030,Philippines,Upig,8493 Toban Way
138,238403,Albania,Baz,714 Buhler Trail
139,788736,Sweden,Öjebyn,82 Paget Road
140,173478,China,Xiaoyue,2098 Jana Place
141,72182,Indonesia,Demuk,61480 Sundown Street
142,191131,Hungary,Szombathely,46 Eastwood Park
143,323552,China,Dalang,9663 Bay Road
144,167304,Mexico,Linda Vista,92 Hintze Point
145,179128,Slovenia,Šoštanj,66170 Waxwing Street
146,619333,Argentina,General Levalle,1850 Emmet Alley
147,405350,Syria,Tall Tamr,83347 Bartelt Center
148,500822,Gambia,Sankwia,4051 Declaration Drive
149,174355,China,Mumen,7 Lindbergh Center
150,530276,Tunisia,Tozeur,20961 Anthes Street
151,844663,Indonesia,Ganggawang,0 Lighthouse Bay Drive
152,86532,China,Lijiapu,7 Atwood Plaza
153,29176,Canada,Woodstock,164 Victoria Alley
154,901377,Reunion,Saint-Pierre,775 Mifflin Plaza
155,699618,China,Jianchang,71398 Rockefeller Court
156,392144,Afghanistan,Ḩukūmat-e Shīnkaī,57 Esch Trail
157,556634,Poland,Solec-Zdrój,2 Lakeland Terrace
158,535206,Macedonia,Karbinci,4 Mandrake Pass
159,591323,China,Yumendong,26889 Montana Center
160,206633,Colombia,Cartago,624 Farmco Lane
161,543167,Philippines,Lourdes,3050 Straubel Terrace
162,510382,Albania,Grekan,3 Mcguire Point
163,894450,Czech Republic,Bzenec,67883 Northport Way
164,666143,France,Le Grand-Quevilly,2 Ridge Oak Center
165,405332,Bosnia and Herzegovina,Ilići,3 Clarendon Place
166,984732,Portugal,Serrinha,58 Bunker Hill Way
167,959649,Vietnam,Hoàn Kiếm,72937 Westend Pass
168,987806,Russia,Surkhakhi,4213 Melody Trail
169,596241,France,Voiron,58 Pennsylvania Place
170,560719,Vietnam,Năm Căn,49315 Menomonie Circle
171,355331,Indonesia,Bojongsari,0157 Fulton Drive
172,507670,Mexico,San Juan,66 Oxford Avenue
173,538206,Brazil,Alenquer,60 Stuart Court
174,946818,Italy,Firenze,78652 High Crossing Pass
175,268520,Reunion,Saint-Denis,20463 Onsgard Park
176,550,Uruguay,San Bautista,181 Montana Way
177,427294,Armenia,Gyumri,98 4th Road
178,986787,Portugal,Pigeiros,850 Carpenter Pass
179,394760,Indonesia,Anjirserapat,2 Mallory Hill
180,24487,China,Pu’er,7756 Gerald Terrace
181,491910,Portugal,Selmes,11977 Burning Wood Junction
182,579812,Argentina,Villa Ocampo,324 Pond Circle
183,878655,Guatemala,Santa Lucía Cotzumalguapa,838 Twin Pines Hill
184,468078,China,Tongmuluo,19 Victoria Alley
185,314067,China,Daoxian,57021 Ridgeview Avenue
186,624242,Venezuela,Puerto de Nutrias,66 Hoard Court
187,948912,Vietnam,Kỳ Anh,457 Thackeray Trail
188,987239,Morocco,Adassil,3 Elgar Plaza
189,402258,Cuba,Remedios,0 Orin Court
190,665575,Brazil,Rubiataba,77694 Hauk Way
191,29218,United States,Dearborn,4 Manley Terrace
192,130420,Philippines,Atok,0 Reindahl Drive
193,438124,China,Cennan,2426 Gale Circle
194,869939,Mongolia,Orhon,79470 Golden Leaf Junction
195,917296,Greece,Ouranoupolis,19678 Merrick Hill
196,725716,Niger,Tanout,5 Myrtle Court
197,150009,Colombia,Chía,964 Hazelcrest Park
198,625837,Uganda,Kotido,9686 School Way
199,79906,Japan,Katsuura,0650 Moland Lane
200,558877,Sweden,Borlänge,22 Texas Lane
201,465861,China,Songping,3597 Roth Terrace
202,910747,Malaysia,Kangar,13 Coolidge Lane
203,310808,China,Lümeng,1 Merrick Terrace
204,618863,Greece,Panórama,24668 Longview Road
205,829357,China,Micheng,8 Superior Place
206,681550,Greece,Álimos,36 Esker Plaza
207,311945,Portugal,Refojos de Riba de Ave,86259 Tennessee Plaza
208,968195,China,Xiaping,012 Monica Street
209,668133,Sweden,Lidingö,9 Fairfield Circle
210,760573,Serbia,Bačka Palanka,35 Ridge Oak Point
211,831362,China,Toubao,18414 Orin Terrace
212,73996,China,Shuiyang,94 Waywood Avenue
213,528236,Nigeria,Oyan,2667 Barnett Parkway
214,422855,Indonesia,Jambean,119 Jana Terrace
215,479621,China,Pingshan,264 Ridge Oak Street
216,128525,Philippines,San Fernando,4378 Norway Maple Park
217,135949,China,Payxambabazar,48 Eagle Crest Parkway
218,765408,Canada,Stratford,726 Westport Avenue
219,114965,Poland,Wąpielsk,0604 Trailsway Crossing
220,96042,China,Xinji,3461 Moland Terrace
221,236349,France,Longwy,22 Kinsman Center
222,301385,China,Tangtou,066 Village Green Plaza
223,578461,Belarus,Haradzyeya,8 Algoma Plaza
224,815692,China,Nanlang,8 International Terrace
225,34953,Poland,Hyżne,953 Schlimgen Avenue
226,122911,China,Shengci,24 Rockefeller Place
227,998448,Colombia,Cañasgordas,46077 Mcguire Lane
228,732050,Sweden,Stockholm,123 Tennyson Parkway
229,582730,Poland,Lubasz,763 Bartelt Terrace
230,988507,Thailand,Na Chueak,8 Shoshone Lane
231,135947,Indonesia,Wangkung,7 North Crossing
232,283353,China,Zuocun,69 Waubesa Way
233,183084,Brazil,São Miguel do Iguaçu,108 Gateway Center
234,371701,Colombia,Pelaya,1 Logan Way
235,459611,Indonesia,Kalianyar Selatan,1495 Rigney Center
236,134297,China,Jiwei,43044 Browning Point
237,752002,China,Jishan,9 Thackeray Street
238,480492,China,Fuling,2574 Sundown Lane
239,851627,Ukraine,Usatove,1155 Pennsylvania Pass
240,945602,Indonesia,Borehbangle,8152 Laurel Point
241,701343,Colombia,Caramanta,5948 Sycamore Street
242,677757,Brazil,Iperó,00926 Hoffman Point
243,921384,Bangladesh,Gafargaon,385 Debra Junction
244,112572,Indonesia,Suru,69 Holmberg Plaza
245,458261,United States,Houston,09 Stephen Terrace
246,637713,Belgium,Bouillon,538 Gale Drive
247,743196,China,Wuyun,2417 Doe Crossing Pass
248,769201,Kazakhstan,Sastöbe,288 Dovetail Park
249,61018,China,Jiazhuyuan,5698 Northland Lane
250,877155,Russia,Zaprudnya,7664 Blue Bill Park Alley
251,868295,Mauritius,Arsenal,1681 Main Plaza
252,865860,Portugal,Nelas,20115 Susan Road
253,833802,Indonesia,Curug,4 Michigan Center
254,776792,China,Maqian,0521 Farwell Trail
255,448277,United Kingdom,Belfast,96 Esch Way
256,44279,Portugal,Lagoaça,131 Sutherland Road
257,981486,South Africa,Mtubatuba,69 Texas Terrace
258,312444,United States,Milwaukee,365 Gateway Way
259,129268,Philippines,Iba,828 Ilene Parkway
260,726176,Trinidad and Tobago,Peñal,7 Ilene Place
261,637572,United States,Lancaster,0 Fallview Park
262,295688,Chile,Coronel,557 Orin Circle
263,678798,Indonesia,Telangi Satu,8 Welch Parkway
264,981114,China,Xiashuitou,654 Evergreen Court
265,382467,El Salvador,Nueva Guadalupe,98298 Clyde Gallagher Terrace
266,818600,China,Shimiaozi,443 Emmet Lane
267,864761,China,Huomachong,68997 Dunning Pass
268,276861,Indonesia,Sukasenang,81375 Straubel Avenue
269,378724,Poland,Gierłoż,012 Sunfield Court
270,668972,China,Jintao,742 Lerdahl Trail
271,293059,Peru,Ricardo Palma,4715 Oakridge Alley
272,359117,Indonesia,Batujaran,4098 High Crossing Park
273,361598,China,Kaishantun,68 Helena Street
274,726406,China,Xiuyu,968 Mariners Cove Point
275,112270,Colombia,Sibaté,7 Nancy Way
276,419557,China,Songhe,112 Gale Terrace
277,927862,Poland,Osiek,772 Columbus Way
278,906890,Indonesia,Bodeh,5 Schurz Way
279,467610,China,Luzhou,15665 Transport Hill
280,561783,Finland,Honkajoki,7 Kennedy Junction
281,46220,Philippines,Dado,29882 Sauthoff Way
282,26643,Indonesia,Babakankiray,3517 Westport Park
283,671496,Brazil,Jacareí,2 Ohio Plaza
284,202695,United States,Reno,27748 Fordem Alley
285,737438,Argentina,General Arenales,85 Sommers Center
286,933545,Brazil,Itatiba,6315 Manitowish Parkway
287,918769,Taiwan,Taichung,39712 Moland Road
288,361387,Madagascar,Nosy Varika,908 Florence Circle
289,262688,Tanzania,Misungwi,76946 Rigney Trail
290,720781,Czech Republic,Velké Němčice,8241 Ruskin Center
291,730652,Russia,Torbeyevo,0474 Briar Crest Pass
292,267347,Nigeria,Kaduna,22 Ruskin Crossing
293,273093,Estonia,Võhma,51 Haas Parkway
294,101523,Indonesia,Indramayu,222 Sheridan Alley
295,460356,Russia,Kurchatov,890 Bunting Park
296,199633,Indonesia,Cibolek Kidul,7665 Fulton Lane
297,877861,Palestinian Territory,Kafr Qūd,5 Lukken Junction
298,611290,Poland,Jadowniki Mokre,13456 Oakridge Crossing
299,63950,China,Xicun,09 Russell Road
300,450195,Russia,Kirovgrad,7217 Graedel Parkway
301,446164,Thailand,Sahatsakhan,9 Southridge Terrace
302,609310,Poland,Czarnocin,6 Farmco Point
303,43150,China,Fenglin,6 Hoard Place
304,225163,China,Jinchang,370 Independence Road
305,272042,Sweden,Svenljunga,0842 Dayton Park
306,545545,Spain,Santiago De Compostela,30901 Stone Corner Plaza
307,430181,Poland,Siemiątkowo,817 Spaight Road
308,461204,China,Jiangshan,83 Gulseth Park
309,819922,Philippines,Sumilao,178 Cody Pass
310,518624,China,Zhuangta,2 Boyd Circle
311,914613,China,Meicheng,330 Old Shore Alley
312,264567,Russia,Tekstil’shchiki,519 Eliot Terrace
313,364186,Thailand,Na Khu,0 Hagan Trail
314,994775,Canada,Beaconsfield,8460 Hoepker Lane
315,397439,Indonesia,Pangawaren,26652 Scott Center
316,229444,Nicaragua,Nandaime,3 Brentwood Plaza
317,38020,Indonesia,Pomahan,09 High Crossing Parkway
318,427076,Colombia,Chiquinquirá,8 Bashford Park
319,871209,China,Xiluo,51108 Mandrake Drive
320,320784,Colombia,Granada,708 Arizona Trail
321,174879,France,Les Sables-d'Olonne,02 Raven Center
322,965887,China,Yaojiagou,054 Crowley Lane
323,129053,United States,Fort Worth,1334 Comanche Place
324,70592,Ukraine,Stetseva,31 Summer Ridge Parkway
325,92672,Namibia,Bagani,29511 1st Point
326,732034,Azerbaijan,Quba,90 Havey Way
327,334574,Morocco,Boulemane,527 Eastlawn Parkway
328,519131,Norway,Moss,101 Lindbergh Park
329,662506,Portugal,Ferreira do Zêzere,5356 Green Ridge Crossing
330,983217,Malaysia,Klang,91480 Petterle Street
331,27397,Indonesia,Karangpapak,27 Nobel Plaza
332,766612,Russia,Ossora,88 Toban Court
333,192710,France,Villefranche-sur-Mer,058 Lotheville Center
334,185784,Norway,Moss,531 Goodland Center
335,676858,United Kingdom,Merton,685 Vernon Pass
336,550801,China,Tayang,8480 Merchant Place
337,781345,Sweden,Sundbyberg,37 Park Meadow Road
338,92055,Ukraine,Chornobay,9 International Center
339,489524,Indonesia,Sumberan,9926 Division Parkway
340,367141,Greece,Néa Ionía,04 Pleasure Road
341,462910,Russia,Gornorechenskiy,78 Eagan Road
342,970377,Poland,Maniowy,945 Michigan Way
343,878214,Philippines,Banaybanay,0804 Gale Lane
344,951829,France,Avignon,95688 Mcbride Point
345,574044,Poland,Nekla,7 Onsgard Place
346,401153,Indonesia,Lela,4 Bunker Hill Hill
347,209383,Mexico,San Antonio,478 Village Circle
348,160252,Peru,Pucacaca,54270 Sachs Terrace
349,264599,Mongolia,Ongi,5530 Blaine Junction
350,475736,Mozambique,Lichinga,73 Gerald Street
351,807656,Brazil,Barrinha,2 Jana Trail
352,53733,Brazil,Cataguases,4414 Autumn Leaf Parkway
353,56992,Peru,Morropón,7061 Cardinal Drive
354,227588,Czech Republic,Studénka,20 Summer Ridge Trail
355,513774,Poland,Święciechowa,0 Summit Terrace
356,459367,Russia,Nyagan,5 Anniversary Lane
357,72478,Portugal,Ajuda,54 Graedel Road
358,720498,China,Hongshan,4 Bartillon Trail
359,322679,China,Licun,3871 Troy Crossing
360,809038,Philippines,Agoo,0 Crownhardt Point
361,918543,Peru,Ocoyo,7170 Crest Line Crossing
362,21650,Tunisia,Dar Chabanne,65 Division Alley
363,800974,Mexico,Emiliano Zapata,26910 Granby Way
364,749185,Indonesia,Mantingantengah,539 Garrison Drive
365,736764,Greece,Kanália,1 Canary Pass
366,309859,Sweden,Norrköping,124 Mitchell Center
367,43315,China,Zheyuan,60497 Delaware Parkway
368,190859,China,Chaodi,163 Birchwood Hill
369,866088,China,Da’an,408 Butterfield Drive
370,967593,Tunisia,Jendouba,4 Farmco Crossing
371,822496,Philippines,Simimbaan,4732 Maywood Center
372,38,China,Chuanxi,9 Ilene Street
373,603919,Colombia,Jamundí,4394 Marcy Place
374,694123,Indonesia,Cempa,35 Pond Crossing
375,686078,Cambodia,Paôy Pêt,522 Laurel Circle
376,575136,Uzbekistan,Yaypan,9544 Tennyson Park
377,277588,Myanmar,Kyaiklat,6870 Kensington Drive
378,52750,Philippines,Palanas,3587 Oak Pass
379,52360,Indonesia,Wonosari,07447 Becker Way
380,589299,China,Songzhuang,0 Fair Oaks Avenue
381,675232,Indonesia,Tunggaoen Timur,67 Tony Alley
382,997062,Dominican Republic,Jarabacoa,758 Stephen Trail
383,869683,Somalia,Marka,2 Anhalt Court
384,487438,Mexico,La Palma,2 Morning Crossing
385,859994,China,Chenfangji,358 Merry Way
386,813306,Morocco,Akhfennir,07667 Sachtjen Court
387,865904,Portugal,Casal do Sapo,5909 Ludington Plaza
388,546566,Ireland,Castlebellingham,7437 Elka Way
389,369580,Palestinian Territory,Qarāwat Banī Zayd,617 Logan Terrace
390,40389,Bolivia,Potosí,88 Graedel Terrace
391,741237,Indonesia,Manola,446 Browning Street
392,107558,China,Huangdu,596 Kipling Alley
393,377572,Mongolia,Rashaant,371 Grasskamp Park
394,451807,Egypt,Luxor,8 Towne Street
395,84085,China,Zhongcun,81 Rowland Trail
396,489519,China,Miaoshou,26904 Claremont Street
397,684650,China,Qiaozhen,06807 Elmside Center
398,244903,Pakistan,Kario,9693 Londonderry Point
399,636881,Hong Kong,Central,2 Warner Street
400,756948,Bosnia and Herzegovina,Bileća,380 Cardinal Trail
401,482367,Indonesia,Bajomulyo,67 Memorial Street
402,352884,Indonesia,Kawaliwu,26578 Dennis Court
403,522725,China,Xiqiao,1148 Everett Circle
404,811616,China,Sangzhou,1450 Mariners Cove Crossing
405,457730,Bosnia and Herzegovina,Ljubuški,17287 Walton Parkway
406,953038,Czech Republic,Rokytnice nad Jizerou,0 Sullivan Junction
407,615878,Russia,Neya,82467 Arapahoe Hill
408,135754,Myanmar,Shwebo,732 Mayfield Hill
409,994933,United States,Merrifield,8 Delaware Drive
410,871928,Thailand,Chaiyaphum,769 Katie Trail
411,941900,China,Yingzai,5843 Clemons Trail
412,211243,Thailand,Nong Khae,6 Shoshone Avenue
413,888875,China,Guankou,98526 Moose Court
414,930713,Armenia,Arrap’i,2 Melvin Circle
415,603847,Somalia,Buur Gaabo,9471 Holy Cross Street
416,94389,China,Languan,1 Buell Plaza
417,859363,Philippines,Tobias Fornier,7679 Autumn Leaf Street
418,661244,China,Zhoutian,17777 Ludington Pass
419,525315,Mongolia,Javhlant,53 Butternut Center
420,19186,Indonesia,Soe,1164 Emmet Point
421,266611,South Africa,Frankfort,5 Myrtle Hill
422,781980,Japan,Rumoi,7354 Crowley Court
423,355916,Indonesia,Kokembang,8023 West Terrace
424,837710,Philippines,Sinamar,419 Hallows Trail
425,925487,Philippines,Hanggan,460 Corben Park
426,992983,Indonesia,Buriwutung,696 Talmadge Lane
427,634929,Thailand,Den Chai,463 Schiller Place
428,880002,Belarus,Palykavichy Pyershyya,2828 Declaration Road
429,834554,Philippines,Wañgan,9076 Westport Center
430,411800,Mexico,Emiliano Zapata,14646 Merchant Road
431,979273,Colombia,Herrán,92406 Saint Paul Point
432,59637,China,Leiwang,85849 Briar Crest Circle
433,345433,Czech Republic,Předklášteří,32735 Chinook Trail
434,51695,Peru,La Caleta Culebras,76 Anzinger Junction
435,720668,Mexico,Lindavista,17 Mesta Trail
436,127389,Brazil,Apucarana,4688 Heath Road
437,913302,China,Xidoupu,613 Hanson Terrace
438,334996,Indonesia,Muruy,299 Roxbury Trail
439,646594,Philippines,Tamnag,44050 Elgar Crossing
440,847446,Colombia,San Benito Abad,0 Westend Hill
441,549263,Philippines,Las Piñas,2 Judy Pass
442,287667,Tunisia,Şaqānis,01 International Terrace
443,79029,Yemen,Ḩawf,97 Northport Trail
444,507756,Brazil,Santo Amaro da Imperatriz,7790 Namekagon Lane
445,999215,Bolivia,Oruro,1456 Briar Crest Point
446,908498,Russia,Ostashkov,946 Moland Drive
447,600483,Brazil,São Gabriel,4272 Redwing Place
448,857256,Argentina,Los Cóndores,08 Manufacturers Center
449,112108,Israel,Buqei‘a,4430 Londonderry Lane
450,155834,France,Courtaboeuf,0209 2nd Street
451,99920,Indonesia,Dadiharja,2 Holmberg Pass
452,853764,Russia,Ladozhskaya,0 Morningstar Plaza
453,6108,Indonesia,Ngembak,61955 Bellgrove Court
454,695906,Brazil,Criciúma,8 Mifflin Center
455,610177,Indonesia,Daleman,5 Eastwood Junction
456,259946,Brazil,Igarassu,04 Manitowish Street
457,23674,China,Bacun,717 Carey Terrace
458,933565,Ireland,Muff,4 Wayridge Road
459,915801,China,Haibeitou,619 Corry Parkway
460,116158,Belarus,Ivyanyets,28370 Tennessee Street
461,88913,Ireland,Kilcullen,7 New Castle Pass
462,497928,Peru,Jangas,3750 Texas Hill
463,979894,Portugal,Amieira,9413 Cordelia Terrace
464,673592,Indonesia,Parigi,9 Delladonna Crossing
465,157910,Peru,Curahuasi,0077 Sundown Junction
466,446148,Sierra Leone,Masingbi,19 Grayhawk Place
467,334406,Philippines,Lapi,9030 Summerview Road
468,249835,United States,Wilkes Barre,120 Meadow Vale Junction
469,944201,Canada,Collingwood,71 Graedel Lane
470,686989,Indonesia,Plumbon,1 Hazelcrest Road
471,741677,Russia,Urazovka,2867 Fuller Lane
472,640377,Colombia,Lérida,393 Crest Line Point
473,171908,Indonesia,Sewon,9 Kim Circle
474,168487,France,Bonneville,1 Gulseth Circle
475,576641,Morocco,Taza,2710 Judy Crossing
476,894786,China,Zhongshi,050 Barnett Crossing
477,456191,Ukraine,Balky,5 Maple Wood Lane
478,308550,Russia,Smolenskaya,3327 Myrtle Center
479,582611,Poland,Tarczyn,835 Ridge Oak Circle
480,947312,Ukraine,Lyakhovtsy,86050 Dovetail Pass
481,554221,Papua New Guinea,Kavieng,2 Graceland Street
482,639770,United States,Los Angeles,45 Mockingbird Trail
483,261224,Saudi Arabia,Umm as Sāhik,66175 Autumn Leaf Pass
484,290066,China,Longping,93 Maple Wood Way
485,603661,Argentina,Tío Pujio,081 Lakeland Way
486,753674,Poland,Czarków,8 Bellgrove Drive
487,325100,Gambia,Sabi,28817 Weeping Birch Hill
488,489334,Philippines,Bagumbayan,91239 Independence Road
489,757872,Ukraine,Uman’,61 Debs Way
490,869614,Lebanon,Tyre,01452 Hansons Road
491,631586,Sweden,Askersund,32 Welch Terrace
492,63413,Peru,Lacabamba,1 Kensington Park
493,975201,China,Lezhu,8407 Ryan Pass
494,593751,Poland,Piasek,0 Marquette Point
495,568319,Democratic Republic of the Congo,Mushie,3 Mesta Way
496,458810,Japan,Gōdo,10373 Manitowish Hill
497,720482,Ethiopia,Turmi,325 Burning Wood Parkway
498,619465,China,Baofeng,565 Manley Plaza
499,315809,China,Wengyang,1628 Lotheville Hill
500,659994,Albania,Frashër,6 Pierstorff Trail
501,238142,Sweden,Ludvika,7633 Birchwood Hill
502,293103,Vietnam,Chợ Chu,8423 Namekagon Point
503,779869,Indonesia,Ganggawang,2 Warbler Point
504,132538,France,Caen,79 Claremont Terrace
505,650905,Indonesia,Bunder,4862 Colorado Park
506,877599,Indonesia,Pasarkayu,2 Gale Junction
507,430478,Slovenia,Celje,09 5th Court
508,34512,Philippines,Taguing,0909 Hudson Crossing
509,5591,Sierra Leone,Potoru,3 5th Drive
510,269212,Greece,Ágios Spyrídon,6 Village Green Road
511,889477,Argentina,Villa Regina,30 Golf View Drive
512,782967,Indonesia,Tangerang,85 Fordem Street
513,843157,Czech Republic,Chýnov,09 Butternut Junction
514,438307,Zambia,Kaoma,68830 Carberry Street
515,187547,Brazil,Itaocara,311 John Wall Center
516,897019,Brazil,Miguel Pereira,3 Spenser Lane
517,596529,Ukraine,Kalanchak,859 Charing Cross Point
518,940368,Albania,Bërxull,0875 Shasta Lane
519,572678,Japan,Shiozawa,19514 Lyons Pass
520,12772,Egypt,Zagazig,9 Haas Drive
521,392380,Philippines,Palomoc,5 Onsgard Drive
522,138089,China,Leshan,2 Meadow Ridge Center
523,967732,China,Gongfang,52305 David Center
524,896059,Latvia,Rēzekne,33 Randy Hill
525,696792,Kenya,Lugulu,67699 Mallory Lane
526,231791,Thailand,Khao Kho,15 Mccormick Street
527,963056,Armenia,Karanlukh,6482 Maple Wood Street
528,671086,Indonesia,Sirnasari,0 Moland Court
529,848040,China,Yangjiafang,07449 Little Fleur Lane
530,366400,Sweden,Borås,24 Buena Vista Lane
531,596437,Indonesia,Selajambe Satu,08 Kipling Hill
532,940723,Ethiopia,Asaita,84 Lillian Crossing
533,342545,Argentina,Luján de Cuyo,15663 Lyons Junction
534,587853,China,Wuhe Chengguanzhen,11 4th Circle
535,659937,South Korea,Yangp'yŏng,4177 Porter Lane
536,231718,Indonesia,Kajar,9264 Monterey Way
537,625460,Brazil,Jardim do Seridó,52 Butterfield Parkway
538,504272,France,Auch,0 Laurel Hill
539,532319,Iraq,Ramadi,92776 Crescent Oaks Drive
540,615923,Armenia,Buzhakan,89 Mallory Place
541,402444,Indonesia,Tual,88275 Hagan Junction
542,588423,Argentina,Plottier,3932 Gateway Street
543,362201,Uganda,Moroto,66567 Saint Paul Court
544,544094,Jamaica,Saint Ann’s Bay,8 Dennis Point
545,917483,Russia,Bogovarovo,346 Moose Park
546,734286,Greece,Lékhaio,47028 Manley Place
547,805819,Serbia,Samoš,2376 Bobwhite Way
548,76792,Cuba,Minas,003 Fairfield Junction
549,725598,Russia,Tabaga,48763 Corry Plaza
550,801613,France,Épinal,24209 Shelley Drive
551,24960,Japan,Hasuda,921 Leroy Avenue
552,658430,Portugal,Oliveirinha,1 Sloan Point
553,230725,Venezuela,Carrizal,73787 Ronald Regan Junction
554,316785,China,Tieremu,1 Lawn Terrace
555,471534,Thailand,Ban Phai,12 Hintze Trail
556,835595,Switzerland,Zürich,03 Oak Terrace
557,455808,Philippines,Tubli,1 Bluestem Plaza
558,67270,Indonesia,Getengan,673 Myrtle Hill
559,857262,Indonesia,Cirateun,3 Morningstar Pass
560,368720,Philippines,Napnapan,75848 Brentwood Junction
561,679896,Portugal,Valinhos,423 Macpherson Lane
562,927831,Estonia,Paldiski,8 Lillian Alley
563,557538,China,Zhushan Chengguanzhen,45036 Dakota Alley
564,126246,Brazil,Itagibá,15820 East Plaza
565,450552,Indonesia,Banjar Buahan,04178 Rusk Lane
566,781901,Indonesia,Dukuhsia,81 Grover Terrace
567,780341,Czech Republic,Pustá Polom,62 Reindahl Alley
568,400942,Peru,Pomacanchi,5430 Marcy Circle
569,430394,Indonesia,Dukuhmencek Lor,9650 Stone Corner Junction
570,93510,Syria,Kafr Zaytā,930 Forest Center
571,805838,Tunisia,Banī Ḩassān,30 Elgar Plaza
572,152727,Mayotte,Koungou,39308 Stuart Pass
573,391535,Croatia,Negoslavci,9896 Corscot Way
574,68476,Philippines,Platagata,4211 Hudson Drive
575,240141,Mauritius,Camp Thorel,7 Novick Trail
576,224845,Angola,Caála,02280 Forster Point
577,170042,China,Pangu,87043 Steensland Point
578,996646,Cuba,Matanzas,1 Onsgard Trail
579,557435,Philippines,Perrelos,53 Jackson Plaza
580,120235,Poland,Wodzierady,4252 Brown Road
581,795703,Morocco,Oulmes,207 Summit Hill
582,64532,Greece,Ouranoupolis,5 Havey Plaza
583,677684,Peru,Yaurisque,4559 Marcy Crossing
584,339045,Indonesia,Nanggorak,16 Northwestern Pass
585,328265,Croatia,Soljani,2086 Manufacturers Parkway
586,875971,Thailand,Bua Yai,3664 Fairfield Hill
587,877908,Brazil,Pomerode,1 School Park
588,474006,Croatia,Kuče,81473 Derek Trail
589,14864,China,Hule,40 Waxwing Lane
590,678567,Serbia,Novi Slankamen,8 Transport Center
591,546241,Indonesia,Riangbao,701 Ridge Oak Lane
592,337215,Brazil,Açucena,8 Nevada Circle
593,110651,Cape Verde,Calheta,9385 Monica Street
594,978095,Indonesia,Dlemer,131 Karstens Crossing
595,368604,Tanzania,Matai,4972 Marcy Drive
596,26178,Kenya,Kitale,19633 Jana Lane
597,242425,Indonesia,Dadiharja,59 Mallory Junction
598,505866,China,Guanzhuang,46604 Maywood Plaza
599,759862,Haiti,Gressier,247 Browning Way
600,550379,South Korea,Yŏng-dong,3 Graceland Junction
601,785348,China,Mengyin,97 Muir Center
602,312676,Sweden,Norrahammar,9378 7th Avenue
603,439873,Finland,Tuusula,6426 Westend Alley
604,55810,China,Tiannan,17498 Orin Pass
605,819438,Philippines,San Miguel,1 Jenna Alley
606,549172,China,Kanshan,4281 Waywood Crossing
607,276736,Indonesia,Bengubelan,31 Mendota Trail
608,964764,Indonesia,Cirahab,7 West Junction
609,787897,Canada,Lac La Biche,3619 Michigan Place
610,884850,Indonesia,Kotaagung,2 Westridge Avenue
611,86678,Sweden,Stockholm,45842 Heffernan Crossing
612,718954,Indonesia,Sundawenang,72 Daystar Park
613,877323,Colombia,Landázuri,11187 Mandrake Crossing
614,260229,Guatemala,San Luis Jilotepeque,4 Nova Road
615,779124,Russia,Stan-Bekhtemir,976 Iowa Trail
616,668759,Brazil,Apucarana,2964 Sugar Plaza
617,296897,China,Fengjia,1 Green Ridge Court
618,842326,Indonesia,Kalapadua,66 Carioca Plaza
619,259941,Thailand,Yala,1 International Circle
620,599796,China,Toutai,0 Buell Hill
621,644706,Ecuador,San Lorenzo de Esmeraldas,950 Vera Plaza
622,307396,China,Guanli,73 Mockingbird Way
623,714343,China,Guangning,39077 Portage Center
624,85352,Malawi,Mzimba,7086 Brickson Park Parkway
625,417924,China,Fengpo,581 Dawn Junction
626,392711,United States,Hagerstown,2 Menomonie Pass
627,364013,Portugal,Freiria,73984 Ruskin Crossing
628,870084,Canada,Olds,7 North Place
629,882389,Indonesia,Dalam,23600 Eastwood Trail
630,256114,Indonesia,Mamasa,84 Truax Alley
631,591164,Indonesia,Jambangan,363 Everett Place
632,571794,France,Croix,9531 American Way
633,132753,Serbia,Banatski Dvor,067 Hauk Drive
634,496562,China,Miaotang,6116 Roth Junction
635,720242,Russia,Nevinnomyssk,19 Brentwood Point
636,668351,Czech Republic,Tvrdonice,527 Riverside Trail
637,551981,Russia,Kalanguy,4386 Clarendon Place
638,77791,China,Tuopu,44318 Coleman Point
639,184756,China,Xianrendu,54 Riverside Point
640,994046,China,Hudai,5440 Maple Wood Hill
641,454072,Indonesia,Dampol,091 Armistice Way
642,405269,Marshall Islands,RMI Capitol,94 Arrowood Road
643,57297,Mexico,La Palma,8 7th Way
644,682138,China,Nanhuatang,7984 Dawn Lane
645,46613,Kenya,Keroka,4216 Elka Circle
646,953129,Philippines,Langob,80 Crest Line Way
647,140468,China,Fenshui,6237 Sachs Pass
648,149671,Malaysia,Kuantan,301 Melrose Point
649,409431,China,Sanxi,36 Maple Place
650,258074,Serbia,Ilandža,2766 Victoria Trail
651,255287,Gambia,Somita,31 Texas Road
652,106523,France,Paris 01,77 Goodland Crossing
653,914855,Czech Republic,Nová Cerekev,9831 2nd Center
654,335327,China,Ni’ao,88837 Commercial Plaza
655,238461,Mexico,La Guadalupe,66416 Mariners Cove Center
656,578566,Russia,Ostrov,658 Ramsey Parkway
657,123235,Kenya,Kilifi,3314 Cascade Lane
658,205503,Uzbekistan,Qarshi,1 Waubesa Plaza
659,14907,Ukraine,Novoukrayinka,12 Moose Point
660,420452,Serbia,Gornji Milanovac,6 Randy Hill
661,544796,Indonesia,Cipondok,01484 Springview Parkway
662,860069,Samoa,Falefa,62977 Elgar Street
663,395367,Portugal,Torres Novas,10 Grayhawk Crossing
664,852322,China,Hengshan,3 Ridgeview Alley
665,520801,Mexico,Hidalgo,48 Fairview Pass
666,218261,Indonesia,Bangunharja,87318 Johnson Street
667,350109,Vietnam,Trâu Quỳ,2681 Sage Hill
668,598978,Sweden,Skillingaryd,89 Pine View Place
669,280330,Brazil,Pantanal,321 Clarendon Circle
670,185618,China,Shazhouba,12 Maple Court
671,137652,Portugal,Landim,11 Kropf Court
672,605396,Indonesia,Pomahan,2 Heffernan Pass
673,931393,China,Xilinji,843 Glacier Hill Park
674,188201,China,Motuo,17925 Fremont Alley
675,438115,Brazil,São Sebastião do Paraíso,540 Cardinal Place
676,185280,China,Fengjiang,72 Mariners Cove Center
677,611339,Portugal,Macieira de Rates,50 Lien Avenue
678,99493,France,Aubenas,63700 Sycamore Parkway
679,974014,China,Beidaihehaibin,981 Bowman Crossing
680,646621,Indonesia,Tatebal,9168 Arrowood Trail
681,669224,Indonesia,Jatipamor,469 Mitchell Court
682,248843,Poland,Ruda Śląska,18 Monica Way
683,41059,Laos,Sainyabuli,7233 Garrison Street
684,334916,Pakistan,Batgrām,2 Scott Trail
685,615454,Ireland,Skibbereen,44524 7th Place
686,395083,France,Rungis,21666 Londonderry Drive
687,995206,China,Beixinjie,8822 Welch Drive
688,736625,China,Chengjiao,209 Hudson Lane
689,377366,Canada,Edson,752 Village Green Road
690,626028,China,Shaxi,4 Mcguire Plaza
691,145444,China,Nanqi,1 Cottonwood Crossing
692,716502,South Korea,Kwangyang,9 Leroy Junction
693,77967,Norway,Trondheim,64 Mosinee Plaza
694,192367,Russia,Petrozavodsk,33 Rutledge Plaza
695,118356,Croatia,Vodnjan,79769 Weeping Birch Center
696,122915,China,Fengtai,2 Iowa Lane
697,567440,Pakistan,Toba Tek Singh,22 Jackson Alley
698,229526,Indonesia,Wonosobo,4894 Montana Circle
699,585869,China,Weizheng,24 Gerald Drive
700,434194,Russia,Priyutovo,18 Buhler Place
701,857089,China,Chengxiang,2 Autumn Leaf Road
702,110556,Dominican Republic,Pescadería,38248 Mallard Road
703,748818,Russia,Pochep,2910 Rusk Court
704,891770,Albania,Otllak,39 Clove Terrace
705,962972,Guatemala,La Reforma,9101 Goodland Street
706,652155,Japan,Hasuda,61 Hoard Crossing
707,221133,Solomon Islands,Tulaghi,5 Clemons Crossing
708,511978,Greece,Gýtheio,58695 Hazelcrest Park
709,455387,China,Chenyangzhai,1379 Waywood Way
710,887122,Tunisia,Masākin,0182 Village Green Crossing
711,218433,Philippines,San Joaquin,3 Memorial Drive
712,372353,Tajikistan,Khŭjand,7201 Carioca Junction
713,768579,China,Bingfang,62600 Utah Center
714,288067,Russia,Pavino,9 Debs Court
715,391829,Portugal,Andorinha,3 Dennis Place
716,569156,Poland,Jeziorany,8 Homewood Court
717,192943,Thailand,Ban Phue,0435 Arizona Terrace
718,34172,China,Huazhai,90 5th Avenue
719,261280,China,Ganshui,0 Ridgeway Way
720,297965,Pakistan,Sakrand,6 Logan Street
721,80042,Albania,Mollas,2957 Troy Lane
722,209013,China,Yangsha,061 Clarendon Circle
723,995074,Democratic Republic of the Congo,Masina,07 Memorial Alley
724,618571,Kazakhstan,Almaty,74688 Forster Parkway
725,427601,Philippines,Santiago,2904 Green Center
726,817996,Morocco,Tangier,052 Pennsylvania Road
727,336257,Portugal,Criação Velha,84 Sutteridge Plaza
728,70991,China,Dadukou,7 School Way
729,517282,Russia,Zaplavnoye,65 Forest Dale Junction
730,775237,Serbia,Doljevac,3954 Riverside Road
731,1381,Armenia,Nerk’in Getashen,79 Westerfield Drive
732,798614,Philippines,Irosin,47 Cody Lane
733,815410,Brazil,Soledade,97 Saint Paul Crossing
734,643034,Thailand,Borabue,250 Center Hill
735,633269,Greece,Grevená,39 Little Fleur Alley
736,187860,Philippines,Ungus-Ungus,1 Parkside Road
737,71047,Russia,Chernyshkovskiy,77294 Everett Court
738,650425,Thailand,Nakhon Pathom,6 Manitowish Avenue
739,236157,Poland,Ożarowice,1 Stang Junction
740,27895,Indonesia,Kalianget,25 Porter Center
741,669493,Brazil,Currais Novos,43525 Melvin Way
742,195947,Czech Republic,Rajhrad,01 Roxbury Terrace
743,678681,Indonesia,Kambingan,6 Loftsgordon Parkway
744,898949,Sweden,Karlstad,3 Daystar Junction
745,929060,Mexico,La Cruz,65905 American Alley
746,120589,Philippines,Valencia,9 American Ash Parkway
747,523959,Cuba,Bauta,8744 Donald Trail
748,834817,China,Dalianwan,5 Mesta Point
749,565738,Sweden,Sundsvall,338 Russell Court
750,728331,Greece,Methóni,38 Scofield Hill
751,911183,Poland,Ruda Maleniecka,292 Rigney Plaza
752,638567,Indonesia,Bantawora,8694 Ridgeview Terrace
753,823629,Germany,Lübeck,9201 Pepper Wood Drive
754,474944,China,Magang,45385 Kings Center
755,88605,Japan,Naka,083 Sherman Parkway
756,404714,Philippines,Maticmatic,9 Bluejay Court
757,827041,Poland,Osięciny,5 Ridgeview Court
758,414524,China,Yantan,33 Myrtle Center
759,726114,Peru,Santa,9254 Cambridge Center
760,357122,Russia,Trubchevsk,4079 Magdeline Circle
761,316504,Indonesia,Klutuk,8666 Raven Drive
762,494718,Poland,Nowa Dęba,4386 Meadow Ridge Plaza
763,247455,Malaysia,Melaka,326 Thierer Hill
764,761002,Russia,Grazhdanka,1 Center Plaza
765,42570,China,Shigu,66 Merrick Way
766,30724,Indonesia,Kampungmasjid,6 Kingsford Avenue
767,730838,Indonesia,Malata,9015 Bobwhite Court
768,463136,China,Jiaocun,18 Melrose Pass
769,529305,Kuwait,Salwá,521 Lunder Pass
770,704228,Madagascar,Maintirano,826 Golf Course Park
771,699492,Philippines,Sison,2 Cascade Hill
772,804202,China,Tuojiang,186 Clove Alley
773,181235,Colombia,Guachetá,18 Coolidge Circle
774,789401,China,Erdaohe,0720 Merchant Park
775,714621,China,Baoshan,8 Merrick Alley
776,594528,Indonesia,Cerme Kidul,9812 Mallory Park
777,168825,China,Sanyang,95 Scott Drive
778,519838,Brazil,Cubatão,45030 Bonner Road
779,327776,Russia,Zhiletovo,0 Luster Point
780,72697,Indonesia,Cipari Satu,4616 Coolidge Place
781,803441,Argentina,Ushuaia,119 Bluestem Hill
782,458639,China,Taihe,25189 American Crossing
783,453002,Peru,Pueblo Nuevo,30 Sauthoff Avenue
784,847393,Liberia,Monrovia,8172 Superior Hill
785,141648,Tunisia,Radès,191 Ronald Regan Road
786,679468,China,Danzao,5 Northridge Court
787,364073,China,Yajiang,6641 Clemons Way
788,41745,Bosnia and Herzegovina,Liješnica,535 Everett Center
789,520176,Brazil,Sarandi,2954 Mayfield Crossing
790,581590,Indonesia,Telagasari,777 Everett Center
791,465280,Portugal,Vila Franca das Naves,381 Anzinger Circle
792,4519,Poland,Skulsk,8719 Michigan Avenue
793,294923,Canada,Lorraine,0 Brickson Park Street
794,558203,Indonesia,Cibitung,21868 Raven Trail
795,276651,Philippines,Tingloy,0924 Bonner Court
796,650315,China,Jinping,20341 Pankratz Drive
797,860818,Russia,Prokhorovka,012 Manitowish Way
798,693511,Sweden,Göteborg,01 Oakridge Plaza
799,690557,Indonesia,Rokoy,3 Hanover Lane
800,866726,Philippines,Looc,9 Sunfield Trail
801,872624,China,Youxi,97 Graceland Crossing
802,736516,Russia,Nevinnomyssk,46405 Acker Hill
803,658211,China,Zhujiaqiao,39 Pepper Wood Hill
804,344359,Portugal,Bobadela,9456 Troy Way
805,821672,China,Zhongfeng,17 Moose Street
806,768746,Indonesia,Rejowinangun,24 Haas Crossing
807,470058,Philippines,Dobdoban,3076 Petterle Hill
808,351292,China,Huangli,55 Roxbury Road
809,581870,China,Shuangtang,5001 Eagan Pass
810,186744,Poland,Złotniki,4462 Browning Parkway
811,335819,Slovenia,Koper,0 Sunbrook Avenue
812,193651,Poland,Koszarawa,203 Bultman Plaza
813,994558,Armenia,Dzorastan,472 Delaware Road
814,390709,Egypt,Farshūţ,03 Village Green Crossing
815,2721,Indonesia,Wolowona,13 1st Road
816,530133,Pakistan,Toba Tek Singh,1335 Forest Dale Center
817,799483,Ukraine,Dmytrivka,1 Waxwing Trail
818,38338,Poland,Niedrzwica Duża,75622 Sunbrook Court
819,85586,Colombia,Nocaima,1 Oriole Court
820,307751,China,Liuji,33 Walton Plaza
821,818907,China,Renhe,86 Ruskin Plaza
822,760193,Philippines,San Isidro,7 Randy Court
823,251420,China,Huangtudian,61399 Fairview Alley
824,784282,United States,Springfield,2 Ohio Plaza
825,634299,Netherlands,Amsterdam Westpoort,6037 Green Alley
826,689940,China,Wangjiang,7849 Del Mar Terrace
827,6209,Ukraine,Troyits’ke,1 Dryden Park
828,509737,Tunisia,Gabès,5 Fordem Trail
829,267047,Serbia,Gakovo,787 Mandrake Terrace
830,612880,Cuba,La Habana Vieja,0 Gina Hill
831,141607,Argentina,Venado Tuerto,4401 Nova Road
832,997429,Indonesia,Krajan Suko Kidul,4241 Haas Road
833,641526,Russia,Valuyki,36 Arrowood Plaza
834,660554,Philippines,Sagasa,150 Nobel Parkway
835,730539,Portugal,Jardia,31 Charing Cross Point
836,864986,China,Xiting,8 Mariners Cove Crossing
837,641461,Switzerland,Basel,70 Lakeland Way
838,149502,Norway,Ålesund,56915 Farmco Pass
839,291528,Belarus,Kosava,7422 Montana Parkway
840,142822,Ireland,Tullamore,0958 Reinke Junction
841,410142,Russia,Kuz’minskiye Otverzhki,1109 Calypso Alley
842,664837,China,Mahe,41 Merrick Center
843,992249,Russia,Roslavl’,3 Troy Place
844,78798,Indonesia,Tamanan,147 Everett Road
845,520141,Poland,Leśnica,50 Shelley Pass
846,974781,China,Changchuan,349 Sachs Hill
847,871977,Slovenia,Videm pri Ptuju,36 Messerschmidt Way
848,518727,Indonesia,Cilegi,47 Heath Park
849,559889,Poland,Szamotuły,27249 Novick Center
850,579469,Czech Republic,Včelná,73931 Coolidge Hill
851,458211,China,Shanban,88 Briar Crest Parkway
852,535362,France,Montauban,20 Bonner Trail
853,105346,Somalia,Marka,316 Arkansas Court
854,739000,Portugal,Água de Pau,3912 Victoria Park
855,338060,Indonesia,Pelem,8 Eastwood Center
856,66328,China,Yanmenguan,5689 Gateway Road
857,980927,Russia,Dzhiginka,2328 Hansons Way
858,700369,Portugal,Boucinha,36 Shasta Court
859,307107,Vietnam,Sơn Hà,66240 High Crossing Junction
860,945452,Mayotte,Tsingoni,2708 Twin Pines Drive
861,360561,Mongolia,Höshigiyn-Ar,266 Independence Street
862,421919,Nicaragua,Santo Domingo,949 Green Street
863,715490,South Korea,Moppo,642 Vernon Center
864,827196,Indonesia,Tambakrejo,499 Spohn Junction
865,83877,Poland,Radzyń Chełmiński,98 Del Sol Court
866,763357,Argentina,Bonpland,42859 Cambridge Circle
867,192822,Indonesia,Perbaungan,088 Thierer Place
868,730871,Uganda,Bukomansimbi,88359 Dapin Trail
869,376832,Russia,Siukh,022 Briar Crest Place
870,971757,China,Huanggong,3 Pawling Street
871,805175,Jordan,Amman,803 Ridge Oak Alley
872,167473,Indonesia,Batusangkar,927 Raven Avenue
873,365055,China,Jiangyin,81 Charing Cross Junction
874,977833,Philippines,San Nicolas,466 Prairieview Point
875,765964,Nepal,Tīkāpur,0 Manley Plaza
876,680225,Luxembourg,Ell,448 Sutherland Place
877,487291,Brazil,Encantado,3 Vidon Lane
878,313982,Russia,Kafyr-Kumukh,59739 Kropf Road
879,445444,Greece,Filótion,89120 Canary Drive
880,497811,China,Tongqiao,4100 Dexter Alley
881,503627,Peru,Andarapa,2882 Del Mar Circle
882,136875,Russia,Palana,0 Portage Crossing
883,872208,Belarus,Vidzy,362 Bultman Junction
884,647138,Indonesia,Kasui,2253 Logan Alley
885,808129,Croatia,Markušica,62 Mosinee Parkway
886,226264,Poland,Konin,36595 Summit Road
887,167760,Philippines,Santisimo Rosario,45061 Spaight Alley
888,3774,China,Pingdu,3 Westport Hill
889,567741,China,Leiyang,04 Monument Place
890,690363,Ukraine,Kornyn,029 Sunfield Road
891,758205,Democratic Republic of the Congo,Matadi,559 Lyons Place
892,119666,Indonesia,Karangnongko,194 Carpenter Avenue
893,990995,Nicaragua,Ciudad Darío,54 Sutherland Park
894,31457,China,Qukou,0 Bayside Junction
895,178753,Japan,Iwakura,69146 Lotheville Circle
896,856097,Indonesia,Tenggina Daya,50 Kennedy Trail
897,886327,Indonesia,Bondowoso,436 Moulton Circle
898,690161,China,Taocun,37503 Eastwood Circle
899,832840,Brazil,Leme,71 Jay Crossing
900,83331,Philippines,Alcala,601 Sycamore Street
901,736623,Portugal,Almodôvar,42305 Vidon Court
902,659896,South Africa,Hartswater,735 Hovde Place
903,726524,Colombia,Espinal,89305 Westend Lane
904,335863,China,Yiyang,492 Bobwhite Park
905,538806,Indonesia,Karangasem,3829 Fairview Plaza
906,523152,Indonesia,Karangbaru,3109 Westerfield Avenue
907,251170,Niger,Ayorou,227 Kropf Parkway
908,404471,China,Maopingchang,1 Fordem Park
909,870210,Indonesia,Putun,94 Bellgrove Center
910,978048,United States,Anaheim,067 Northwestern Trail
911,933877,China,Jiwei,134 Cambridge Street
912,181618,Malaysia,Kota Kinabalu,09996 Stoughton Center
913,6204,Indonesia,Sumberan,9749 Lukken Drive
914,878996,China,Jincheng,64 Maywood Pass
915,747774,Botswana,Gaphatshwe,8 Buell Circle
916,305009,South Korea,Waegwan,9322 Thierer Parkway
917,913195,Guatemala,Atescatempa,67750 Northwestern Center
918,966293,Brazil,Casimiro de Abreu,455 Menomonie Point
919,241020,France,Montélimar,69849 Transport Center
920,940010,France,Saint-Lô,5291 Sunnyside Place
921,817582,Mauritius,Triolet,49942 Crescent Oaks Terrace
922,972953,China,Haduohe,2923 Manitowish Junction
923,909206,Colombia,Acacías,7269 Packers Avenue
924,309896,Peru,Namballe,4248 Eastwood Plaza
925,959342,China,Hadayang,19157 Dapin Drive
926,46707,China,Gunziying,0558 Clemons Drive
927,909429,Togo,Aného,1 Orin Terrace
928,655515,Poland,Kórnik,15 Dunning Avenue
929,355915,China,Qintang,31 Northridge Street
930,387106,Latvia,Cesvaine,2117 Helena Street
931,890983,Lebanon,Jdaidet el Matn,0 Schurz Lane
932,473037,Macedonia,Bogovinje,1 Warner Junction
933,616650,China,Damaying,30 School Alley
934,351032,Mexico,Emiliano Zapata,56 Morrow Center
935,758326,Canada,Greater Napanee,73242 Oak Street
936,770868,Indonesia,Wajak,988 Vera Court
937,211812,France,Évry,378 Linden Center
938,769205,China,Guishan,46417 Schiller Lane
939,671036,China,Tazhuang,7339 Autumn Leaf Drive
940,235719,China,Huangbu,52 Sommers Junction
941,545591,Belarus,Korolëv Stan,51382 Karstens Alley
942,330877,Colombia,Sincelejo,56 Carberry Plaza
943,345101,Afghanistan,Sang-e Chārak,18 Macpherson Lane
944,484793,Indonesia,Bilo,10423 Sundown Center
945,302,Paraguay,Tobatí,14 Meadow Vale Plaza
946,649105,Venezuela,Mucumpiz,19 Evergreen Court
947,917610,France,Paris La Défense,32 Knutson Park
948,85213,Philippines,Camias,34834 Loftsgordon Plaza
949,806392,China,Yangshan,26 Hallows Pass
950,563430,Peru,Palca,6 Monica Circle
951,968266,Indonesia,Kebonan,76137 Division Terrace
952,731129,Sweden,Farsta,181 Hallows Way
953,913838,Indonesia,Bendilwungu Lor,09884 Hazelcrest Trail
954,392430,Afghanistan,Kai,5693 Caliangt Court
955,585014,Brazil,Viradouro,49660 Talisman Drive
956,890127,China,Minji,6 Forest Run Street
957,517196,Poland,Niedzica,8308 Paget Terrace
958,259951,Colombia,Ciénaga,54 Charing Cross Plaza
959,804579,Indonesia,Karangharjo,016 Surrey Plaza
960,982756,China,Duancun,03039 Green Ridge Way
961,757165,Greece,Chrysoúpolis,08 Cottonwood Alley
962,427538,Tanzania,Kahama,531 Homewood Lane
963,104983,Greece,Korisós,70438 Portage Hill
964,152742,Paraguay,Guayaybi,34 Atwood Junction
965,653226,China,Dazi,0111 Homewood Crossing
966,427072,Indonesia,Sumberjo,2 Elgar Park
967,244040,Indonesia,Tangkanpulit,0638 Norway Maple Parkway
968,294411,United States,Denver,662 Karstens Junction
969,527685,Venezuela,Santa María de Caparo,478 Crest Line Court
970,205453,Zambia,Mkushi,48 Northland Pass
971,698312,Japan,Kasama,293 Cordelia Trail
972,471854,Czech Republic,Kobeřice,67509 Chive Trail
973,947304,Latvia,Stende,62 Petterle Crossing
974,305926,France,Aubenas,5 Graedel Hill
975,979735,Portugal,Serra de Santa Marinha,3335 Brickson Park Trail
976,980344,Philippines,Puro,25175 Quincy Park
977,528880,Sweden,Stockholm,35 Scoville Hill
978,850831,France,Créteil,5 Ruskin Court
979,82005,Russia,Nakhabino,2 Loomis Plaza
980,781577,France,Tournan-en-Brie,48489 Bluejay Circle
981,872796,Zambia,Kitwe,7 Mosinee Trail
982,351494,Poland,Nowa Sól,96102 Roxbury Avenue
983,799112,Mali,Taoudenni,8776 Sugar Street
984,247723,Armenia,Norashen,72 Portage Avenue
985,459370,Uzbekistan,Kosonsoy,04797 John Wall Alley
986,176200,Macedonia,Desovo,5 Mandrake Point
987,850865,Indonesia,Sukasirna,4 Blackbird Place
988,694818,Vanuatu,Port-Vila,78066 Westerfield Point
989,645547,Mozambique,Nampula,0 Carey Drive
990,402212,Nigeria,Amper,9448 Manley Center
991,122833,Russia,Sarapul,8397 Gerald Park
992,439535,Indonesia,Sendangwaru,66796 Garrison Trail
993,794822,Canada,Sainte-Anne-des-Monts,7826 Buell Hill
994,408951,Indonesia,Banjar Tengah,67 Holy Cross Drive
995,848753,Indonesia,Sonorejo,29 Stone Corner Place
996,151274,Philippines,Calauan,903 Karstens Center
997,348983,China,Anding,8011 Waywood Terrace
998,325770,Chile,Valparaíso,3 Rigney Center
999,966522,China,Yanling,583 Merchant Terrace
1000,335865,France,Vesoul,6 Petterle Lane
